1 87843U          20023.52961423 +.00000256 +00000+0 +73211-3 0  9998
2 87843  99.6657 304.6744 0253211 326.0614  32.4518 13.09611883282216
1 87845U          20024.26268847 +.00000366 +00000+0 +76709-3 0  9999
2 87845  98.8429  26.1260 0593777 135.6916 229.3327 12.83809881289005
1 87848U          20024.72486524 +.00000081 +00000+0 +20791-4 0  9992
2 87848  74.0133 191.8341 0020042  10.4923 349.6660 14.65624460330175
1 87878U          20025.36163889 +.00000369 +00000+0 +16604-3 0  9998
2 87878  99.1907 351.8671 0043001   5.8302 354.3370 14.28224471303851
1 87883U          20025.39805327 +.00000025 +00000+0 +29958-4 0  9993
2 87883  99.3242 240.6189 0297699 284.2826  72.5459 14.11896179268925
1 87884U          20025.25864097 -.00000067 +00000+0 -14788-4 0  9991
2 87884  98.5056 206.5542 0157057   2.3206 357.8657 14.04324921316700
1 87898U          20025.49054524 +.00001621 +00000+0 +62238-3 0  9995
2 87898  98.9413 223.0205 0135413  41.4577 319.6781 14.26982493320632
1 87934U          20023.93302292 +.00000041 +00000+0 +28776-4 0  9996
2 87934  82.9361  87.9006 0029523 249.6378 233.3729 13.72766156309333
1 87942U          20025.51870458 +.00000589 +00000+0 +72158-4 0  9995
2 87942  99.0969 231.2372 0149009 106.1252 286.2281 14.80495527326818
1 87970U          20025.39978169 +.00008711 +00000+0 +50364-3 0  9999
2 87970  99.0348 184.0874 0043706 189.4514 170.5894 15.11784100284006
1 87972U          20013.48849619 +.00001177 +00000+0 +46039-3 0  9998
2 87972  98.8122 284.7425 0170525 204.3562 154.9489 14.23815177266978
1 87991U          20025.24406492 +.00003023 +00000+0 +59281-2 0  9998
2 87991  28.6292 223.9070 0924542 239.4839 111.1238 12.29501049258085
1 87997U          20025.44052420 +.00086578 +40322-5 +24910-2 0  9998
2 87997  63.1595 276.4376 1570727  17.4393 347.4760 12.35094143247323
1 87998U          20023.88855260 +.00000113 +00000+0 +92212-4 0  9994
2 87998  98.7986  81.4201 0027955 209.5071 150.4521 14.07726958246153
1 88028U          20024.38989070 +.00000281 +00000+0 +98687-3 0  9999
2 88028  21.2602 309.7633 7068843 101.8572 338.8044  2.44207479 50006
1 88049U          20024.26173377 +.00000171 +00000+0 +44073-2 0  9991
2 88049  64.5774  28.1316 5449963  52.5017  12.6584  4.30571317 97042
1 88069U          20025.24030925 +.00008180 +00000+0 +15523-2 0  9999
2 88069  23.0488  55.2887 6003028 207.9967  99.5699  4.03930653129408
1 88079U          20025.58338044 +.00009339 +00000-0 +14638-2 0  9994
2 88079 020.6729 159.9572 4804207 035.3474 348.6022 05.94972888098157
1 88096U          20025.32415161 +.00013098 +00000+0 +90463-2 0  9997
2 88096  65.0828 147.9192 5222367 152.6304 249.0100  5.13421097144763
1 88107U          20024.99087716 +.00000743 +00000+0 +88878-3 0  9994
2 88107  20.3131 193.8538 6761371  60.1080 350.0189  2.88036028 45304
1 88110U          20023.99214608 +.00550602 +00000+0 +59597-2 0  9998
2 88110  23.7590 183.1870 3272789 261.5045  60.7506  8.96120860 79241
1 88117U          20024.57514863 -.00000049 +00000+0 -38863-4 0  9998
2 88117  20.3899 194.5670 4900962 345.8133   4.2100  5.58382251 97346
1 88153U          20024.40000000 -.00000032 +00000+0 +00000+0 0  9991
2 88153  63.5090   7.6340 6347103 240.0680  22.6400  2.98389459 54958
1 88173U          20025.23196544 +.00000340 +00000+0 +26756-3 0  9995
2 88173  99.1600 314.4172 0157366 222.9221 135.9571 13.93059500301486
1 88203U          20024.13345749 +.00022571 +00000+0 +30336-2 0  9998
2 88203  64.6036 274.1525 5917036   6.5415 358.7162  4.18488545 57153
1 88216U          20025.35510276 -.00001564 +00000+0 -51864-2 0  9996
2 88216  21.7326 101.9109 6642266 111.3389 328.1722  2.97515297 50699
1 88230U          20025.45585840 +.00011467 +00000+0 +42735-2 0  9990
2 88230  49.0263 178.8556 5590402  80.3032 335.6190  4.61895270 78732
1 88238U          20024.82383479 +.00001432 +00000+0 +13603-2 0  9995
2 88238  21.5138 256.1154 7045262 187.4536 149.8571  2.53433933 50314
1 88241U          20022.58368416 +.00007372 +00000+0 +14310-2 0  9999
2 88241  62.4987  96.0399 4065599 143.8340 252.0429  7.20129600 25826
1 88255U          20025.53948299 +.00010321 +00000-0 +52382-3 0  9996
2 88255 020.3189 168.2410 4807762 041.9187 346.2865 06.02671957104517
1 88269U          20024.54752059 +.00000030 +00000+0 +00000+0 0  9999
2 88269  62.8952 183.4641 4661013 272.7122 121.1671  5.35415271120946
1 88270U          20020.87697892 -.00000091 +00000+0 +70040-3 0  9999
2 88270  49.3621 353.0186 6504768 320.7502   6.6233  3.14186332 56140
1 88271U          20024.44889792 +.00000129 +00000+0 +12747-1 0  9998
2 88271  64.1298 143.4819 5489639 260.7787  51.1894  3.90219173 88053
1 88288U          20025.03656795 +.00247608 +00000+0 +74628-2 0  9999
2 88288  20.6878 314.9295 4517760 118.5668 293.9807  6.56350537  9316
1 88313U          20025.27282916 +.00000420 +00000-0 +54101-3 0  9999
2 88313 020.1970 234.1485 6833687 348.2161 001.6725 02.78451031061253
1 88323U          20023.55387636 -.00000041 +00000+0 +00000+0 0  9998
2 88323  18.1128 175.6430 6619444 169.1416 219.2157  1.96384136 34998
1 88342U          20025.40713481 +.00001993 +00000+0 +12676-2 0  9997
2 88342  20.9150  40.9024 5213319  20.1440 354.5624  5.15633767 86093
1 88355U          20025.21608449 -.00000028 +00000+0 +00000+0 0  9991
2 88355  19.9249 198.1266 6965444  33.7192 355.4654  2.24713694 37315
1 88700U          20016.78512403 -.00000334 +00000+0 +00000+0 0  9991
2 88700  71.3467 217.4271 6404765 157.6693 252.1261  2.03936236165449
1 88703U          20024.17005964 +.00000776 +00000+0 +00000+0 0  9994
2 88703  71.7103 185.6994 5927287 216.1087  83.5645  2.00783463 45265
1 88710U          20025.12096841 +.00000044 +00000+0 -54054-4 0  9994
2 88710  63.4929 257.1982 5695192 250.4813 337.7546  4.16110972 93821
1 88716U          20025.56629917 +.00000013 +00000-0 +17012-3 0  9992
2 88716 063.6419 231.5828 3881115 318.3584 030.4109 06.85070579154575
1 89003U          20025.29459328 +.00000011 +00000+0 +13095-4 0  9994
2 89003  74.0486 350.3136 0017044 221.2456 138.7409 14.34615659323341
1 89005U          20025.17909563 +.00000342 +00000+0 +10391-3 0  9996
2 89005  97.9032 353.6312 0224592  68.5617 293.9363 14.34083423225392
1 89029U          20024.76587907 +.00000189 +00000+0 +33630-4 0  9991
2 89029  98.2587 210.4201 0032220  76.5910 283.8888 14.78136145332661
1 89037U          20023.28369098 +.00000273 +00000+0 +18731-3 0  9993
2 89037  98.4021  37.6531 0140584 137.5471 223.6672 14.01977264220191
1 89048U          20025.47379144 +.00001696 +00000+0 +42465-3 0  9992
2 89048  98.9106 207.7371 0007630   8.9667 351.1662 14.52836067325335
1 89067U          20025.15365948 +.00001883 +00000+0 +62912-4 0  9993
2 89067  80.9893 100.8593 0616300 334.4813  22.7076 14.34739246271554
1 89074U          20024.67138870 +.00001090 +00000+0 +13645-2 0  9996
2 89074 100.2974 349.9172 0058641  27.6991 146.7383 13.66227813294923
1 89091U          20024.12104837 +.00000174 +00000+0 +15874-3 0  9990
2 89091  82.9438 169.6794 0031187 301.0724  58.7373 13.77859415290365
1 89101U          20025.24072548 +.00000260 +00000+0 +90785-3 0  9999
2 89101 100.2199  29.6304 0147336 236.6608 122.0320 13.03566336274876
1 89123U          20025.14101388 +.00001075 +00000+0 +55622-3 0  9993
2 89123  99.0766  98.3128 0066265 249.6450 109.7595 14.16036765222278
1 89127U          20025.13355160 +.00001414 +00000+0 +16907-3 0  9995
2 89127  74.0717 280.0390 0047693 172.3864 187.8051 14.84420553172586
1 89132U          20024.87463519 +.00001036 +00000+0 +90965-3 0  9995
2 89132  63.3847 353.5434 3078233 317.0363  22.6728  8.71513452136667
1 89135U          20025.59961142 +.00000908 +00000-0 +47365-3 0  9997
2 89135 071.0495 148.0004 0139223 284.2670 074.3024 14.12307391317923
1 89140U          20025.50299219 +.00007297 +00000+0 +24426-2 0  9992
2 89140  98.7731  49.1721 0004917 348.7253  11.3822 14.37641630180423
1 89142U          20025.43741527 +.00002879 +00000+0 +22680-2 0  9991
2 89142  64.9809 200.1953 3398542 343.4202   7.7795  8.16266804125277
1 89143U          20025.46513065 +.00045005 +00000+0 +96265-2 0  9997
2 89143  65.1238 296.9173 0759779 357.0897   2.5845 13.53733801 98120
1 89146U          20025.14184291 +.00000085 +00000+0 +32989-4 0  9994
2 89146  98.1025 340.3038 0119802 190.4757 169.3938 14.47272242317139
1 89158U          20024.85326692 +.00001886 +00000+0 +23496-3 0  9999
2 89158  98.8350 345.9012 0097531 270.3498  88.6536 14.80641351171882
1 89161U          20025.09908910 +.00000396 +00000+0 +64447-4 0  9996
2 89161  97.8357  79.2483 0134202 275.4490  83.1421 14.70882506229904
1 89171U          20024.50342555 +.00002203 +00000+0 +23368-3 0  9994
2 89171  99.0127 122.2370 0064133 347.7303  12.2345 14.88917488233325
1 89172U 81053    20025.31158110 +.00000588 +00000+0 +14032-3 0  9996
2 89172  82.0811 351.8556 0422999 141.6972 221.5069 14.09133080297076
1 89177U          20025.37826664 +.00000056 +00000+0 +44248-4 0  9999
2 89177  82.9199  61.3467 0032387   0.4247 359.6930 13.73370287768051
1 89183U          20025.27933590 +.00000183 +00000+0 +20550-3 0  9992
2 89183  99.1514 328.0463 0134403 100.2042 261.4299 13.78885641310671
1 89184U          20025.49345859 +.00000745 +00000+0 +26121-3 0  9996
2 89184  98.5050 219.9180 0019893 182.5581 177.5507 14.37783858181207
1 89195U          20025.09228688 +.00000533 +00000+0 +25536-3 0  9998
2 89195  98.8352  80.6191 0027975 351.5816   8.4888 14.23084339221292
1 89206U          20023.82794864 +.00000857 +00000+0 +39232-3 0  9991
2 89206  98.7553  42.6359 0029722 307.4379  52.4096 14.23819898179194
1 89213U          20023.68860344 -.00000060 +00000+0 -11436-4 0  9995
2 89213  98.8276 332.3217 0232917 238.5639 119.2560 13.88942320154011
1 89218U          20025.46530840 +.00000052 +00000+0 +96806-4 0  9996
2 89218 100.3477 107.0495 0107144 124.7603 236.3688 13.79385290296985
